NORAD_CAT_ID,OBJECT_NAME,OBJECT_TYPE,EPOCH,MEAN_MOTION,ECCENTRICITY,INCLINATION,RA_OF_ASC_NODE,ARG_OF_PERICENTER,MEAN_ANOMALY,BSTAR,MEAN_MOTION_DOT,MEAN_MOTION_DDOT,TLE_LINE0,TLE_LINE1,TLE_LINE2,SEMIMAJOR_AXIS,PERIOD,APOGEE,PERIGEE,DECAYED
53704.0,STARLINK-4714,PAYLOAD,2024-07-09 10:18:57,15.08849863,0.00013,53.2171,94.9648,106.0555,254.058,0.00016705,2.372e-05,0.0,0 STARLINK-4714,1 53704U 22107E   24191.42983361  .00002372  00000-0  16705-3 0  9990,2 53704  53.2171  94.9648 0001300 106.0555 254.0580 15.08849863102869,6917.85,95.437,540.615,538.816,0.0
53704.0,STARLINK-4714,PAYLOAD,2024-07-09 21:26:40,15.08833273,0.0001873,53.2184,92.8912,124.9343,235.1826,-4.2714e-05,-9.68e-06,0.0,0 STARLINK-4714,1 53704U 22107E   24191.89352351 -.00000968  00000-0 -42714-4 0  9991,2 53704  53.2184  92.8912 0001873 124.9343 235.1826 15.08833273102347,6917.901,95.438,541.062,538.47,0.0
53704.0,STARLINK-4714,PAYLOAD,2024-07-10 10:09:45,15.08843263,0.0001354,53.2175,90.5042,95.1518,264.9628,0.00011402,1.527e-05,0.0,0 STARLINK-4714,1 53704U 22107E   24192.42343993  .00001527  00000-0  11402-3 0  9992,2 53704  53.2175  90.5042 0001354  95.1518 264.9628 15.08843263103018,6917.87,95.437,540.672,538.799,0.0
53704.0,STARLINK-4714,PAYLOAD,2024-07-10 22:52:51,15.08831293,0.0001461,53.2179,88.1253,93.2014,266.9146,-3.8493e-05,-9e-06,0.0,0 STARLINK-4714,1 53704U 22107E   24192.95336808 -.00000900  00000-0 -38493-4 0  9993,2 53704  53.2179  88.1253 0001461  93.2014 266.9146 15.08831293103093,6917.907,95.438,540.783,538.761,0.0
53704.0,STARLINK-4714,PAYLOAD,2024-07-11 02:03:37,15.08836906,0.0001562,53.2182,87.5308,95.3204,264.7967,4.4913e-05,4.27e-06,0.0,0 STARLINK-4714,1 53704U 22107E   24193.08584688  .00000427  00000-0  44913-4 0  9995,2 53704  53.2182  87.5308 0001562  95.3204 264.7967 15.08836906102527,6917.89,95.438,540.835,538.674,0.0
53704.0,STARLINK-4714,PAYLOAD,2024-07-11 16:22:05,15.08845559,0.0001882,53.2185,84.8535,84.4739,275.6468,0.00010234,1.341e-05,0.0,0 STARLINK-4714,1 53704U 22107E   24193.68200321  .00001341  00000-0  10234-3 0  9994,2 53704  53.2185  84.8535 0001882  84.4739 275.6468 15.08845559103206,6917.863,95.437,541.03,538.426,0.0
53704.0,STARLINK-4714,PAYLOAD,2024-07-12 09:51:19,15.08851573,0.0001188,53.2167,81.5814,85.5011,274.6117,0.00022813,3.346e-05,0.0,0 STARLINK-4714,1 53704U 22107E   24194.41063958  .00003346  00000-0  22813-3 0  9992,2 53704  53.2167  81.5814 0001188  85.5011 274.6117 15.08851573102723,6917.845,95.437,540.532,538.888,0.0
53704.0,STARLINK-4714,PAYLOAD,2024-07-12 20:59:02,15.08834756,0.0001738,53.2178,79.5021,86.0425,274.0766,3.7236e-05,3.05e-06,0.0,0 STARLINK-4714,1 53704U 22107E   24194.87433039  .00000305  00000-0  37236-4 0  9991,2 53704  53.2178  79.5021 0001738  86.0425 274.0766 15.08834756102793,6917.896,95.438,540.964,538.559,0.0
53704.0,STARLINK-4714,PAYLOAD,2024-07-12 22:34:25,15.08832304,0.0001212,53.2167,79.2067,92.5251,267.588,-2.0892e-05,-6.2e-06,0.0,0 STARLINK-4714,1 53704U 22107E   24194.94057219 -.00000620  00000-0 -20892-4 0  9993,2 53704  53.2167  79.2067 0001212  92.5251 267.5880 15.08832304103392,6917.904,95.438,540.607,538.93,0.0
53704.0,STARLINK-4714,PAYLOAD,2024-07-13 09:42:06,15.08850421,0.000132,53.2152,77.1212,99.6628,260.4513,0.00032483,4.887e-05,0.0,0 STARLINK-4714,1 53704U 22107E   24195.40424351  .00004887  00000-0  32483-3 0  9995,2 53704  53.2152  77.1212 0001320  99.6628 260.4513 15.08850421102878,6917.849,95.437,540.627,538.8,0.0
53704.0,STARLINK-4714,PAYLOAD,2024-07-13 22:25:12,15.08842241,0.00011,53.2168,74.743,83.7826,276.3292,0.00021684,3.165e-05,0.0,0 STARLINK-4714,1 53704U 22107E   24195.93416702  .00003165  00000-0  21684-3 0  9993,2 53704  53.2168  74.7430 0001100  83.7826 276.3292 15.08842241103546,6917.874,95.437,540.5,538.978,0.0
53704.0,STARLINK-4714,PAYLOAD,2024-07-14 01:35:58,15.08853237,0.0001355,53.2158,74.1472,89.4176,270.6971,0.00050285,7.727e-05,0.0,0 STARLINK-4714,1 53704U 22107E   24196.06664451  .00007727  00000-0  50285-3 0  9991,2 53704  53.2158  74.1472 0001355  89.4176 270.6971 15.08853237102972,6917.84,95.437,540.642,538.768,0.0
53704.0,STARLINK-4714,PAYLOAD,2024-07-14 20:40:35,15.08844754,0.0001514,53.2161,70.5791,83.5282,276.5883,0.00017099,2.435e-05,0.0,0 STARLINK-4714,1 53704U 22107E   24196.86152741  .00002435  00000-0  17099-3 0  9990,2 53704  53.2161  70.5791 0001514  83.5282 276.5883 15.08844754103095,6917.866,95.437,540.778,538.683,0.0
53704.0,STARLINK-4714,PAYLOAD,2024-07-14 22:15:58,15.08845218,0.0001334,53.2166,70.2801,91.6363,268.4782,0.00017849,2.554e-05,0.0,0 STARLINK-4714,1 53704U 22107E   24196.92776570  .00002554  00000-0  17849-3 0  9994,2 53704  53.2166  70.2801 0001334  91.6363 268.4782 15.08845218103699,6917.864,95.437,540.652,538.807,0.0
53704.0,STARLINK-4714,PAYLOAD,2024-07-15 01:26:45,15.08848746,0.0001271,53.2167,69.687,96.3847,263.729,0.0002403,3.539e-05,0.0,0 STARLINK-4714,1 53704U 22107E   24197.06024402  .00003539  00000-0  24030-3 0  9994,2 53704  53.2167  69.6870 0001271  96.3847 263.7290 15.08848746103711,6917.854,95.437,540.598,538.839,0.0
53704.0,STARLINK-4714,PAYLOAD,2024-07-15 22:06:46,15.08840661,0.0001419,53.2178,65.8205,89.1617,270.9537,7.0915e-05,8.41e-06,0.0,0 STARLINK-4714,1 53704U 22107E   24197.92136639  .00000841  00000-0  70915-4 0  9992,2 53704  53.2178  65.8205 0001419  89.1617 270.9537 15.08840661103253,6917.878,95.438,540.725,538.762,0.0
53704.0,STARLINK-4714,PAYLOAD,2024-07-16 07:39:04,15.08855258,0.0001394,53.2182,64.0376,89.2074,270.9078,0.00020891,3.04e-05,0.0,0 STARLINK-4714,1 53704U 22107E   24198.31879727  .00003040  00000-0  20891-3 0  9999,2 53704  53.2182  64.0376 0001394  89.2074 270.9078 15.08855258103313,6917.834,95.437,540.663,538.734,0.0
53704.0,STARLINK-4714,PAYLOAD,2024-07-16 20:22:10,15.08833919,0.0001348,53.2173,61.6566,98.3359,261.7786,-2.4842e-05,-6.83e-06,0.0,0 STARLINK-4714,1 53704U 22107E   24198.84872781 -.00000683  00000-0 -24842-4 0  9993,2 53704  53.2173  61.6566 0001348  98.3359 261.7786 15.08833919103395,6917.899,95.438,540.697,538.831,0.0
53704.0,STARLINK-4714,PAYLOAD,2024-07-16 21:57:33,15.08837826,0.0001475,53.2177,61.3596,106.9969,253.1185,2.256e-05,7.1e-07,0.0,0 STARLINK-4714,1 53704U 22107E   24198.91496567  .00000071  00000-0  22560-4 0  9999,2 53704  53.2177  61.3596 0001475 106.9969 253.1185 15.08837826103998,6917.887,95.438,540.772,538.732,0.0
53704.0,STARLINK-4714,PAYLOAD,2024-07-17 07:29:50,15.08855192,0.0001036,53.2171,59.5756,80.7605,279.3505,0.00025476,3.771e-05,0.0,0 STARLINK-4714,1 53704U 22107E   24199.31239492  .00003771  00000-0  25476-3 0  9994,2 53704  53.2171  59.5756 0001036  80.7605 279.3505 15.08855192103462,6917.834,95.437,540.416,538.982,0.0
53704.0,STARLINK-4714,PAYLOAD,2024-07-17 20:12:57,15.0882423,0.0001209,53.2175,57.1995,84.2019,275.9111,-0.00013616,-2.453e-05,0.0,0 STARLINK-4714,1 53704U 22107E   24199.84233481 -.00002453  00000-0 -13616-3 0  9995,2 53704  53.2175  57.1995 0001209  84.2019 275.9111 15.08824230103548,6917.929,95.439,540.63,538.957,0.0
53704.0,STARLINK-4714,PAYLOAD,2024-07-18 07:20:39,15.08843337,0.0001347,53.2177,55.1219,105.0335,255.0807,0.00019199,2.769e-05,0.0,0 STARLINK-4714,1 53704U 22107E   24200.30600709  .00002769  00000-0  19199-3 0  9990,2 53704  53.2177  55.1219 0001347 105.0335 255.0807 15.08843337104207,6917.87,95.437,540.667,538.803,0.0
53704.0,STARLINK-4714,PAYLOAD,2024-07-18 20:03:44,15.08828186,0.0001248,53.2165,52.7423,93.0253,267.0882,-1.1012e-05,-4.63e-06,0.0,0 STARLINK-4714,1 53704U 22107E   24200.83593667 -.00000463  00000-0 -11012-4 0  9990,2 53704  53.2165  52.7423 0001248  93.0253 267.0882 15.08828186103692,6917.916,95.438,540.645,538.918,0.0
53704.0,STARLINK-4714,PAYLOAD,2024-07-18 21:39:08,15.08830484,0.0001346,53.2171,52.4415,87.3959,272.7187,9.4523e-05,1.216e-05,0.0,0 STARLINK-4714,1 53704U 22107E   24200.90217845  .00001216  00000-0  94523-4 0  9992,2 53704  53.2171  52.4415 0001346  87.3959 272.7187 15.08830484104297,6917.909,95.438,540.706,538.843,0.0
53704.0,STARLINK-4714,PAYLOAD,2024-07-19 21:29:55,15.08844257,0.0001189,53.2165,47.9844,89.8236,270.2893,0.00047335,7.254e-05,0.0,0 STARLINK-4714,1 53704U 22107E   24201.89577930  .00007254  00000-0  47335-3 0  9991,2 53704  53.2165  47.9844 0001189  89.8236 270.2893 15.08844257103856,6917.867,95.437,540.555,538.91,0.0
53704.0,STARLINK-4714,PAYLOAD,2024-07-20 07:02:13,15.08858121,9.93e-05,53.2164,46.1937,98.4273,261.6832,0.00068018,0.00010559,0.0,0 STARLINK-4714,1 53704U 22107E   24202.29321273  .00010559  00000-0  68018-3 0  9996,2 53704  53.2164  46.1937 0000993  98.4273 261.6832 15.08858121104503,6917.825,95.436,540.377,539.003,0.0
53704.0,STARLINK-4714,PAYLOAD,2024-07-20 19:45:18,15.08849242,8.89e-05,53.2166,43.8174,84.7362,275.3732,0.00025336,3.748e-05,0.0,0 STARLINK-4714,1 53704U 22107E   24202.82313198  .00003748  00000-0  25336-3 0  9990,2 53704  53.2166  43.8174 0000889  84.7362 275.3732 15.08849242104586,6917.852,95.437,540.332,539.102,0.0
53704.0,STARLINK-4714,PAYLOAD,2024-07-20 22:56:04,15.08856444,0.00011,53.2164,43.2211,91.9617,268.1502,0.00055859,8.617e-05,0.0,0 STARLINK-4714,1 53704U 22107E   24202.95561026  .00008617  00000-0  55859-3 0  9992,2 53704  53.2164  43.2211 0001100  91.9617 268.1502 15.08856444104015,6917.83,95.437,540.456,538.934,0.0
53704.0,STARLINK-4714,PAYLOAD,2024-07-21 06:53:00,15.08862716,0.0001103,53.2168,41.7334,93.2566,266.8552,0.0008171,0.00012748,0.0,0 STARLINK-4714,1 53704U 22107E   24203.28680641  .00012748  00000-0  81710-3 0  9999,2 53704  53.2168  41.7334 0001103  93.2566 266.8552 15.08862716104658,6917.811,95.436,540.439,538.913,0.0
53704.0,STARLINK-4714,PAYLOAD,2024-07-21 19:36:05,15.08832159,0.0001338,53.2165,39.3542,100.6912,259.4231,9.9736e-05,1.299e-05,0.0,0 STARLINK-4714,1 53704U 22107E   24203.81673480  .00001299  00000-0  99736-4 0  9998,2 53704  53.2165  39.3542 0001338 100.6912 259.4231 15.08832159104141,6917.904,95.438,540.695,538.844,0.0
